[{"OBJECT_NAME":"STARLINK-5841","OBJECT_ID":"2023-064AX","EPOCH":"2026-03-09T09:55:02.143200","MEAN_MOTION":14.98303276,"ECCENTRICITY":0.00032249,"INCLINATION":69.9991,"RA_OF_ASC_NODE":85.1707,"ARG_OF_PERICENTER":277.624,"MEAN_ANOMALY":82.4553,"EPHEMERIS_TYPE":0,"CLASSIFICATION_TYPE":"U","NORAD_CAT_ID":56493,"ELEMENT_SET_NO":999,"REV_AT_EPOCH":15668,"BSTAR":-0.0002372291,"MEAN_MOTION_DOT":-2.921e-5,"MEAN_MOTION_DDOT":0},{"OBJECT_NAME":"LEMUR-2-DELOITTE-1","OBJECT_ID":"2025-052BB","EPOCH":"2026-03-09T22:32:58.708896","MEAN_MOTION":14.9679712,"ECCENTRICITY":0.00030112,"INCLINATION":97.7035,"RA_OF_ASC_NODE":323.209,"ARG_OF_PERICENTER":78.3841,"MEAN_ANOMALY":281.7719,"EPHEMERIS_TYPE":0,"CLASSIFICATION_TYPE":"U","NORAD_CAT_ID":63259,"ELEMENT_SET_NO":999,"REV_AT_EPOCH":5384,"BSTAR":0.00044206323,"MEAN_MOTION_DOT":5.004e-5,"MEAN_MOTION_DDOT":0}]
